{
    "links": {
        "self": "http://www.neowsapp.com/rest/v1/neo/54017453?api_key=iIulBulltgU6a56xZRHN4H3l9WmuAYTsLGpBGhQ2"
    },
    "id": "54017453",
    "neo_reference_id": "54017453",
    "name": "(2020 MD)",
    "designation": "2020 MD",
    "nasa_jpl_url": "http://ssd.jpl.nasa.gov/sbdb.cgi?sstr=54017453",
    "absolute_magnitude_h": 22.434,
    "estimated_diameter": {
        "kilometers": {
            "estimated_diameter_min": 0.0866472885,
            "estimated_diameter_max": 0.1937492271
        },
        "meters": {
            "estimated_diameter_min": 86.6472884908,
            "estimated_diameter_max": 193.7492271315
        },
        "miles": {
            "estimated_diameter_min": 0.0538401123,
            "estimated_diameter_max": 0.120390151
        },
        "feet": {
            "estimated_diameter_min": 284.2758899722,
            "estimated_diameter_max": 635.660214342
        }
    },
    "is_potentially_hazardous_asteroid": false,
    "close_approach_data": [
        {
            "close_approach_date": "2020-06-04",
            "close_approach_date_full": "2020-Jun-04 06:00",
            "epoch_date_close_approach": 1591250400000,
            "relative_velocity": {
                "kilometers_per_second": "13.939246064",
                "kilometers_per_hour": "50181.2858304623",
                "miles_per_hour": "31180.6995206003"
            },
            "miss_distance": {
                "astronomical": "0.2391332433",
                "lunar": "93.0228316437",
                "kilometers": "35773823.843871771",
                "miles": "22228823.3723455998"
            },
            "orbiting_body": "Earth"
        },
        {
            "close_approach_date": "2030-06-06",
            "close_approach_date_full": "2030-Jun-06 15:47",
            "epoch_date_close_approach": 1906991220000,
            "relative_velocity": {
                "kilometers_per_second": "14.5110072778",
                "kilometers_per_hour": "52239.6261999403",
                "miles_per_hour": "32459.672179624"
            },
            "miss_distance": {
                "astronomical": "0.3789437295",
                "lunar": "147.4091107755",
                "kilometers": "56689174.783056165",
                "miles": "35225019.804318477"
            },
            "orbiting_body": "Earth"
        }
    ],
    "orbital_data": {
        "orbit_id": "4",
        "orbit_determination_date": "2020-07-11 06:45:17",
        "first_observation_date": "2020-06-13",
        "last_observation_date": "2020-07-10",
        "data_arc_in_days": 27,
        "observations_used": 28,
        "orbit_uncertainty": "7",
        "minimum_orbit_intersection": ".239062",
        "jupiter_tisserand_invariant": "3.386",
        "epoch_osculation": "2459000.5",
        "eccentricity": ".4399906711850342",
        "semi_major_axis": "2.236616537710802",
        "inclination": "25.81851248590914",
        "ascending_node_longitude": "252.2762648055127",
        "orbital_period": "1221.759499707687",
        "perihelion_distance": "1.252526126099879",
        "perihelion_argument": "4.929889349497391",
        "aphelion_distance": "3.220706949321725",
        "perihelion_time": "2459008.319288255402",
        "mean_anomaly": "357.6959919095222",
        "mean_motion": ".2946570090808643",
        "equinox": "J2000",
        "orbit_class": {
            "orbit_class_type": "AMO",
            "orbit_class_description": "Near-Earth asteroid orbits similar to that of 1221 Amor",
            "orbit_class_range": "1.017 AU < q (perihelion) < 1.3 AU"
        }
    },
    "is_sentry_object": false
}